[
    {
        "Altitude(m)": 604983.0529021212,
        "Argument of Periapsis(deg)": 0.0,
        "Eccentricity": 0.0,
        "Inclination(deg)": 60.0,
        "Latitude(deg)": -0.09259190076443823,
        "Longitude(deg)": 160.08391622961682,
        "Mean Anomaly(deg)": 180.0,
        "RAAN(deg)": 80.0,
        "Satellite Name": "Test1 363",
        "Satellite Number": 363,
        "Semi-Major Axis(m)": 6980739.136638005,
        "Time(s)": 0
    },
    {
        "Altitude(m)": 605055.3319750732,
        "Argument of Periapsis(deg)": 0.00010418945913296404,
        "Eccentricity": 0.0,
        "Inclination(deg)": 60.0,
        "Latitude(deg)": -0.6330022777587322,
        "Longitude(deg)": 160.35204013832097,
        "Mean Anomaly(deg)": 180.62010614546185,
        "RAAN(deg)": 79.99957995086025,
        "Satellite Name": "Test1 363",
        "Satellite Number": 363,
        "Semi-Major Axis(m)": 6980739.136638005,
        "Time(s)": 10
    }
]